$$SOE
2461302.500000000, A.D. 2026-Sep-19 00:00:00.0000, -4.015008027025441E+08, 2.600072662522013E+08, -5.281648757472649E+06,
2461309.500000000, A.D. 2026-Sep-26 00:00:00.0000, -4.061526986305318E+08, 2.542155962802767E+08, -4.280755045255631E+06,
2461316.500000000, A.D. 2026-Oct-03 00:00:00.0000, -4.106254620966380E+08, 2.483120317871777E+08, -3.277959407541916E+06,
2461323.500000000, A.D. 2026-Oct-10 00:00:00.0000, -4.149179205893193E+08, 2.422996570952381E+08, -2.273711672550365E+06,
2461330.500000000, A.D. 2026-Oct-17 00:00:00.0000, -4.190288846758829E+08, 2.361815148766007E+08, -1.268457785625324E+06,
2461337.500000000, A.D. 2026-Oct-24 00:00:00.0000, -4.229571459669842E+08, 2.299606101802247E+08, -2.626404324619323E+05,
2461344.500000000, A.D. 2026-Oct-31 00:00:00.0000, -4.267014750569437E+08, 2.236399142337661E+08, 7.433003271189034E+05,
2461351.500000000, A.D. 2026-Nov-07 00:00:00.0000, -4.302606190918259E+08, 2.172223681065878E+08, 1.748926387917697E+06,
2461358.500000000, A.D. 2026-Nov-14 00:00:00.0000, -4.336332987560815E+08, 2.107108871331461E+08, 2.753800942934334E+06,
2461365.500000000, A.D. 2026-Nov-21 00:00:00.0000, -4.368182064825825E+08, 2.041083667903619E+08, 3.757488061892703E+06,
2461372.500000000, A.D. 2026-Nov-28 00:00:00.0000, -4.398140068786302E+08, 1.974176870338011E+08, 4.759552348648652E+06,
2461379.500000000, A.D. 2026-Dec-05 00:00:00.0000, -4.426193357413483E+08, 1.906417144496918E+08, 5.759558290327087E+06,
2461386.500000000, A.D. 2026-Dec-12 00:00:00.0000, -4.452327974898485E+08, 1.837833053451087E+08, 6.757069535874665E+06,
2461393.500000000, A.D. 2026-Dec-19 00:00:00.0000, -4.476529628968714E+08, 1.768453097943119E+08, 7.751648275957748E+06,
2461400.500000000, A.D. 2026-Dec-26 00:00:00.0000, -4.498783672588261E+08, 1.698305757868718E+08, 8.742854664551213E+06,
2461407.500000000, A.D. 2027-Jan-02 00:00:00.0000, -4.519075087241032E+08, 1.627419533010288E+08, 9.730246239600755E+06,
2461414.500000000, A.D. 2027-Jan-09 00:00:00.0000, -4.537388466580793E+08, 1.555822983367889E+08, 1.071337733194029E+07,
2461421.500000000, A.D. 2027-Jan-16 00:00:00.0000, -4.553708000049261E+08, 1.483544769318365E+08, 1.169179845811389E+07,
2461428.500000000, A.D. 2027-Jan-23 00:00:00.0000, -4.568017455961062E+08, 1.410613691346805E+08, 1.266505568769278E+07,
2461435.500000000, A.D. 2027-Jan-30 00:00:00.0000, -4.580300162148128E+08, 1.337058729011787E+08, 1.363268996185809E+07,
2461442.500000000, A.D. 2027-Feb-06 00:00:00.0000, -4.590538979903096E+08, 1.262909082690407E+08, 1.459423634980848E+07,
2461449.500000000, A.D. 2027-Feb-13 00:00:00.0000, -4.598716275827747E+08, 1.188194230460842E+08, 1.554922338245802E+07,
2461456.500000000, A.D. 2027-Feb-20 00:00:00.0000, -4.604813915242374E+08, 1.112943992396254E+08, 1.649717261298825E+07,
2461463.500000000, A.D. 2027-Feb-27 00:00:00.0000, -4.608813263213149E+08, 1.037188570349620E+08, 1.743759801093352E+07,
2461470.500000000, A.D. 2027-Mar-06 00:00:00.0000, -4.610695162995632E+08, 9.609585826882733E+07, 1.837000506743971E+07,
2461477.500000000, A.D. 2027-Mar-13 00:00:00.0000, -4.610439907859343E+08, 8.842851146939096E+07, 1.929388992302549E+07,
2461484.500000000, A.D. 2027-Mar-20 00:00:00.0000, -4.608027217575973E+08, 8.071997765083721E+07, 2.020873854997863E+07,
2461491.500000000, A.D. 2027-Mar-27 00:00:00.0000, -4.603436217555074E+08, 7.297347633879022E+07, 2.111402592264946E+07,
2461498.500000000, A.D. 2027-Apr-03 00:00:00.0000, -4.596645418606097E+08, 6.519229180616939E+07, 2.200921514970283E+07,
2461505.500000000, A.D. 2027-Apr-10 00:00:00.0000, -4.587632696732306E+08, 5.737977957191255E+07, 2.289375656103263E+07,
2461512.500000000, A.D. 2027-Apr-17 00:00:00.0000, -4.576375272768108E+08, 4.953937318031829E+07, 2.376708674240372E+07,
2461519.500000000, A.D. 2027-Apr-24 00:00:00.0000, -4.562849691112927E+08, 4.167459123411075E+07, 2.462862750152025E+07,
2461526.500000000, A.D. 2027-May-01 00:00:00.0000, -4.547031794621246E+08, 3.378904474775011E+07, 2.547778473608836E+07,
2461533.500000000, A.D. 2027-May-08 00:00:00.0000, -4.528896692640116E+08, 2.588644561156895E+07, 2.631394723228064E+07,
2461540.500000000, A.D. 2027-May-15 00:00:00.0000, -4.508418737243391E+08, 1.797061716565424E+07, 2.713648560383962E+07,
2461547.500000000, A.D. 2027-May-22 00:00:00.0000, -4.485571523416146E+08, 1.004550434127962E+07, 2.794475129811815E+07,
2461554.500000000, A.D. 2027-May-29 00:00:00.0000, -4.460327879775485E+08, 2.115181957063196E+06, 2.873807523571599E+07,
2461561.500000000, A.D. 2027-Jun-05 00:00:00.0000, -4.432659841123019E+08, -5.816135637191419E+06, 2.951576625250249E+07,
2461568.500000000, A.D. 2027-Jun-12 00:00:00.0000, -4.402538623071613E+08, -1.374408307223676E+07, 3.027710955674329E+07,
2461575.500000000, A.D. 2027-Jun-19 00:00:00.0000, -4.369934602288540E+08, -2.166413149114300E+07, 3.102136514809517E+07,
2461582.500000000, A.D. 2027-Jun-26 00:00:00.0000, -4.334817299849969E+08, -2.957157528359511E+07, 3.174776614393462E+07,
2461589.500000000, A.D. 2027-Jul-03 00:00:00.0000, -4.297155366721520E+08, -3.746151792712274E+07, 3.245551699351296E+07,
2461596.500000000, A.D. 2027-Jul-10 00:00:00.0000, -4.256916571390519E+08, -4.532885683064989E+07, 3.314379156856335E+07,
2461603.500000000, A.D. 2027-Jul-17 00:00:00.0000, -4.214067789756001E+08, -5.316826711388068E+07, 3.381173111448344E+07,
2461610.500000000, A.D. 2027-Jul-24 00:00:00.0000, -4.168574996272895E+08, -6.097418426936775E+07, 3.445844203253800E+07,
2461617.500000000, A.D. 2027-Jul-31 00:00:00.0000, -4.120403252902100E+08, -6.874078534398863E+07, 3.508299346371801E+07,
2461624.500000000, A.D. 2027-Aug-07 00:00:00.0000, -4.069516698660200E+08, -7.646196734740351E+07, 3.568441477500835E+07,
2461631.500000000, A.D. 2027-Aug-14 00:00:00.0000, -4.015878563716812E+08, -8.413132298652507E+07, 3.626169312574090E+07,
2461638.500000000, A.D. 2027-Aug-21 00:00:00.0000, -3.959451202996336E+08, -9.174211692072737E+07, 3.681377076915050E+07,
2461645.500000000, A.D. 2027-Aug-28 00:00:00.0000, -3.900196116334790E+08, -9.928726114579661E+07, 3.733954185914466E+07,
2461652.500000000, A.D. 2027-Sep-04 00:00:00.0000, -3.838073968581919E+08, -1.067592867945050E+08, 3.783784906054659E+07,
2461659.500000000, A.D. 2027-Sep-11 00:00:00.0000, -3.773044625456594E+08, -1.141503127853106E+08, 3.830748002109351E+07,
2461666.500000000, A.D. 2027-Sep-18 00:00:00.0000, -3.705067206038565E+08, -1.214520117173384E+08, 3.874716362361789E+07,
2461673.500000000, A.D. 2027-Sep-25 00:00:00.0000, -3.634100152232077E+08, -1.286555728116418E+08, 3.915556597450124E+07,
2461680.500000000, A.D. 2027-Oct-02 00:00:00.0000, -3.560101317542279E+08, -1.357516615681434E+08, 3.953128610687010E+07,
2461687.500000000, A.D. 2027-Oct-09 00:00:00.0000, -3.483028078616586E+08, -1.427303758159009E+08, 3.987285137960662E+07,
2461694.500000000, A.D. 2027-Oct-16 00:00:00.0000, -3.402837473337582E+08, -1.495811978596749E+08, 4.017871254715927E+07,
2461701.500000000, A.D. 2027-Oct-23 00:00:00.0000, -3.319486368175645E+08, -1.562929423480045E+08, 4.044723846405321E+07,
2461708.500000000, A.D. 2027-Oct-30 00:00:00.0000, -3.232931657383152E+08, -1.628536988415141E+08, 4.067671043146478E+07,
2461715.500000000, A.D. 2027-Nov-06 00:00:00.0000, -3.143130513172671E+08, -1.692507675145088E+08, 4.086531638105849E+07,
2461722.500000000, A.D. 2027-Nov-13 00:00:00.0000, -3.050040715652121E+08, -1.754705896070558E+08, 4.101114491110562E+07,
2461729.500000000, A.D. 2027-Nov-20 00:00:00.0000, -2.953621044146204E+08, -1.814986743433501E+08, 4.111217874252937E+07,
2461736.500000000, A.D. 2027-Nov-27 00:00:00.0000, -2.853831726431587E+08, -1.873195188787017E+08, 4.116628771478239E+07,
2461743.500000000, A.D. 2027-Dec-04 00:00:00.0000, -2.750634981226193E+08, -1.929165199005219E+08, 4.117122162501342E+07,
2461750.500000000, A.D. 2027-Dec-11 00:00:00.0000, -2.643995677400076E+08, -1.982718774274731E+08, 4.112460294819077E+07,
2461757.500000000, A.D. 2027-Dec-18 00:00:00.0000, -2.533882128544593E+08, -2.033664908059461E+08, 4.102391948253138E+07,
2461764.500000000, A.D. 2027-Dec-25 00:00:00.0000, -2.420267046833729E+08, -2.081798466950563E+08, 4.086651704579017E+07,
2461771.500000000, A.D. 2028-Jan-01 00:00:00.0000, -2.303128685964184E+08, -2.126898990104115E+08, 4.064959241463447E+07,
$$EOE